; FORGE·X video demonstration toolpath
; Built reproducibly with tools/generate-demo-kit.js
; Demo asset only — not produced by a physical printer
;Generated with OrcaSlicer 2.3.0
;FLAVOR:Marlin
;TIME:695
;Filament used: 0.6873m
;Layer height: 0.20
;LAYER_COUNT:18
M82
M140 S60
M104 S210
M190 S60
M109 S210
G28
G29
G92 E0
;LAYER:0
G1 Z0.2 F900
;TYPE:WALL-OUTER
G0 X158 Y120 F7200
G1 X156.705 Y129.835 E0.417 F1500
G1 X152.909 Y139 E0.833 F1500
G1 X146.87 Y146.87 E1.25 F1500
G1 X139 Y152.909 E1.667 F1500
G1 X129.835 Y156.705 E2.083 F1500
G1 X120 Y158 E2.5 F1500
G1 X110.165 Y156.705 E2.916 F1500
G1 X101 Y152.909 E3.333 F1500
G1 X93.13 Y146.87 E3.75 F1500
G1 X87.091 Y139 E4.166 F1500
G1 X83.295 Y129.835 E4.583 F1500
G1 X82 Y120 E5 F1500
G1 X83.295 Y110.165 E5.416 F1500
G1 X87.091 Y101 E5.833 F1500
G1 X93.13 Y93.13 E6.25 F1500
G1 X101 Y87.091 E6.666 F1500
G1 X110.165 Y83.295 E7.083 F1500
G1 X120 Y82 E7.5 F1500
G1 X129.835 Y83.295 E7.916 F1500
G1 X139 Y87.091 E8.333 F1500
G1 X146.87 Y93.13 E8.749 F1500
G1 X152.909 Y101 E9.166 F1500
G1 X156.705 Y110.165 E9.583 F1500
G1 X158 Y120 E9.999 F1500
;TYPE:WALL-INNER
G0 X154 Y120 F7200
G1 X152.841 Y128.8 E10.372 F1500
G1 X149.445 Y137 E10.745 F1500
G1 X144.042 Y144.042 E11.118 F1500
G1 X137 Y149.445 E11.49 F1500
G1 X128.8 Y152.841 E11.863 F1500
G1 X120 Y154 E12.236 F1500
G1 X111.2 Y152.841 E12.609 F1500
G1 X103 Y149.445 E12.982 F1500
G1 X95.958 Y144.042 E13.354 F1500
G1 X90.555 Y137 E13.727 F1500
G1 X87.159 Y128.8 E14.1 F1500
G1 X86 Y120 E14.473 F1500
G1 X87.159 Y111.2 E14.846 F1500
G1 X90.555 Y103 E15.218 F1500
G1 X95.958 Y95.958 E15.591 F1500
G1 X103 Y90.555 E15.964 F1500
G1 X111.2 Y87.159 E16.337 F1500
G1 X120 Y86 E16.709 F1500
G1 X128.8 Y87.159 E17.082 F1500
G1 X137 Y90.555 E17.455 F1500
G1 X144.042 Y95.958 E17.828 F1500
G1 X149.445 Y103 E18.201 F1500
G1 X152.841 Y111.2 E18.573 F1500
G1 X154 Y120 E18.946 F1500
;TYPE:SOLID-FILL
G0 X90.138 Y111.678 F7200
G1 X111.678 Y90.138 E20.226 F1350
G0 X119.169 Y89.011 F7200
G1 X89.011 Y119.169 E22.017 F1350
G0 X89.426 Y125.119 F7200
G1 X125.119 Y89.426 E24.137 F1350
G0 X130.187 Y90.721 F7200
G1 X90.721 Y130.187 E26.481 F1350
G0 X92.66 Y134.612 F7200
G1 X134.612 Y92.66 E28.973 F1350
G0 X138.506 Y95.13 F7200
G1 X95.13 Y138.506 E31.549 F1350
G0 X98.08 Y141.92 F7200
G1 X141.92 Y98.08 E34.153 F1350
G0 X144.87 Y101.494 F7200
G1 X101.494 Y144.87 E36.73 F1350
G0 X105.388 Y147.34 F7200
G1 X147.34 Y105.388 E39.222 F1350
G0 X149.279 Y109.813 F7200
G1 X109.813 Y149.279 E41.566 F1350
G0 X114.881 Y150.574 F7200
G1 X150.574 Y114.881 E43.686 F1350
G0 X150.989 Y120.831 F7200
G1 X120.831 Y150.989 E45.477 F1350
G0 X128.322 Y149.862 F7200
G1 X149.862 Y128.322 E46.756 F1350
;LAYER:1
G1 Z0.4 F900
;TYPE:WALL-OUTER
G0 X157.675 Y124.96 F7200
G1 X155.107 Y134.542 E47.173 F1500
G1 X150.147 Y143.133 E47.59 F1500
G1 X143.133 Y150.147 E48.006 F1500
G1 X134.542 Y155.107 E48.423 F1500
G1 X124.96 Y157.675 E48.84 F1500
G1 X115.04 Y157.675 E49.256 F1500
G1 X105.458 Y155.107 E49.673 F1500
G1 X96.867 Y150.147 E50.09 F1500
G1 X89.853 Y143.133 E50.506 F1500
G1 X84.893 Y134.542 E50.923 F1500
G1 X82.325 Y124.96 E51.34 F1500
G1 X82.325 Y115.04 E51.756 F1500
G1 X84.893 Y105.458 E52.173 F1500
G1 X89.853 Y96.867 E52.589 F1500
G1 X96.867 Y89.853 E53.006 F1500
G1 X105.458 Y84.893 E53.423 F1500
G1 X115.04 Y82.325 E53.839 F1500
G1 X124.96 Y82.325 E54.256 F1500
G1 X134.542 Y84.893 E54.673 F1500
G1 X143.133 Y89.853 E55.089 F1500
G1 X150.147 Y96.867 E55.506 F1500
G1 X155.107 Y105.458 E55.923 F1500
G1 X157.675 Y115.04 E56.339 F1500
G1 X157.675 Y124.96 E56.756 F1500
;TYPE:WALL-INNER
G0 X153.709 Y124.438 F7200
G1 X151.412 Y133.011 E57.129 F1500
G1 X146.974 Y140.698 E57.501 F1500
G1 X140.698 Y146.974 E57.874 F1500
G1 X133.011 Y151.412 E58.247 F1500
G1 X124.438 Y153.709 E58.62 F1500
G1 X115.562 Y153.709 E58.993 F1500
G1 X106.989 Y151.412 E59.365 F1500
G1 X99.302 Y146.974 E59.738 F1500
G1 X93.026 Y140.698 E60.111 F1500
G1 X88.588 Y133.011 E60.484 F1500
G1 X86.291 Y124.438 E60.856 F1500
G1 X86.291 Y115.562 E61.229 F1500
G1 X88.588 Y106.989 E61.602 F1500
G1 X93.026 Y99.302 E61.975 F1500
G1 X99.302 Y93.026 E62.348 F1500
G1 X106.989 Y88.588 E62.72 F1500
G1 X115.562 Y86.291 E63.093 F1500
G1 X124.438 Y86.291 E63.466 F1500
G1 X133.011 Y88.588 E63.839 F1500
G1 X140.698 Y93.026 E64.211 F1500
G1 X146.974 Y99.302 E64.584 F1500
G1 X151.412 Y106.989 E64.957 F1500
G1 X153.709 Y115.562 E65.33 F1500
G1 X153.709 Y124.438 E65.703 F1500
;TYPE:SOLID-FILL
G0 X149.862 Y111.678 F7200
G1 X128.322 Y90.138 E66.982 F1350
G0 X120.831 Y89.011 F7200
G1 X150.989 Y119.169 E68.773 F1350
G0 X150.574 Y125.119 F7200
G1 X114.881 Y89.426 E70.893 F1350
G0 X109.813 Y90.721 F7200
G1 X149.279 Y130.187 E73.238 F1350
G0 X147.34 Y134.612 F7200
G1 X105.388 Y92.66 E75.729 F1350
G0 X101.494 Y95.13 F7200
G1 X144.87 Y138.506 E78.306 F1350
G0 X141.92 Y141.92 F7200
G1 X98.08 Y98.08 E80.91 F1350
G0 X95.13 Y101.494 F7200
G1 X138.506 Y144.87 E83.486 F1350
G0 X134.612 Y147.34 F7200
G1 X92.66 Y105.388 E85.978 F1350
G0 X90.721 Y109.813 F7200
G1 X130.187 Y149.279 E88.322 F1350
G0 X125.119 Y150.574 F7200
G1 X89.426 Y114.881 E90.442 F1350
G0 X89.011 Y120.831 F7200
G1 X119.169 Y150.989 E92.234 F1350
G0 X111.678 Y149.862 F7200
G1 X90.138 Y128.322 E93.513 F1350
;LAYER:2
G1 Z0.6 F900
;TYPE:WALL-OUTER
G0 X158 Y120 F7200
G1 X156.705 Y129.835 E93.93 F1500
G1 X152.909 Y139 E94.346 F1500
G1 X146.87 Y146.87 E94.763 F1500
G1 X139 Y152.909 E95.18 F1500
G1 X129.835 Y156.705 E95.596 F1500
G1 X120 Y158 E96.013 F1500
G1 X110.165 Y156.705 E96.429 F1500
G1 X101 Y152.909 E96.846 F1500
G1 X93.13 Y146.87 E97.263 F1500
G1 X87.091 Y139 E97.679 F1500
G1 X83.295 Y129.835 E98.096 F1500
G1 X82 Y120 E98.513 F1500
G1 X83.295 Y110.165 E98.929 F1500
G1 X87.091 Y101 E99.346 F1500
G1 X93.13 Y93.13 E99.763 F1500
G1 X101 Y87.091 E100.179 F1500
G1 X110.165 Y83.295 E100.596 F1500
G1 X120 Y82 E101.012 F1500
G1 X129.835 Y83.295 E101.429 F1500
G1 X139 Y87.091 E101.846 F1500
G1 X146.87 Y93.13 E102.262 F1500
G1 X152.909 Y101 E102.679 F1500
G1 X156.705 Y110.165 E103.096 F1500
G1 X158 Y120 E103.512 F1500
;TYPE:WALL-INNER
G0 X154 Y120 F7200
G1 X152.841 Y128.8 E103.885 F1500
G1 X149.445 Y137 E104.258 F1500
G1 X144.042 Y144.042 E104.631 F1500
G1 X137 Y149.445 E105.003 F1500
G1 X128.8 Y152.841 E105.376 F1500
G1 X120 Y154 E105.749 F1500
G1 X111.2 Y152.841 E106.122 F1500
G1 X103 Y149.445 E106.495 F1500
G1 X95.958 Y144.042 E106.867 F1500
G1 X90.555 Y137 E107.24 F1500
G1 X87.159 Y128.8 E107.613 F1500
G1 X86 Y120 E107.986 F1500
G1 X87.159 Y111.2 E108.359 F1500
G1 X90.555 Y103 E108.731 F1500
G1 X95.958 Y95.958 E109.104 F1500
G1 X103 Y90.555 E109.477 F1500
G1 X111.2 Y87.159 E109.85 F1500
G1 X120 Y86 E110.222 F1500
G1 X128.8 Y87.159 E110.595 F1500
G1 X137 Y90.555 E110.968 F1500
G1 X144.042 Y95.958 E111.341 F1500
G1 X149.445 Y103 E111.714 F1500
G1 X152.841 Y111.2 E112.086 F1500
G1 X154 Y120 E112.459 F1500
;TYPE:SOLID-FILL
G0 X90.138 Y111.678 F7200
G1 X111.678 Y90.138 E113.739 F1350
G0 X119.169 Y89.011 F7200
G1 X89.011 Y119.169 E115.53 F1350
G0 X89.426 Y125.119 F7200
G1 X125.119 Y89.426 E117.65 F1350
G0 X130.187 Y90.721 F7200
G1 X90.721 Y130.187 E119.994 F1350
G0 X92.66 Y134.612 F7200
G1 X134.612 Y92.66 E122.486 F1350
G0 X138.506 Y95.13 F7200
G1 X95.13 Y138.506 E125.062 F1350
G0 X98.08 Y141.92 F7200
G1 X141.92 Y98.08 E127.666 F1350
G0 X144.87 Y101.494 F7200
G1 X101.494 Y144.87 E130.243 F1350
G0 X105.388 Y147.34 F7200
G1 X147.34 Y105.388 E132.735 F1350
G0 X149.279 Y109.813 F7200
G1 X109.813 Y149.279 E135.079 F1350
G0 X114.881 Y150.574 F7200
G1 X150.574 Y114.881 E137.199 F1350
G0 X150.989 Y120.831 F7200
G1 X120.831 Y150.989 E138.99 F1350
G0 X128.322 Y149.862 F7200
G1 X149.862 Y128.322 E140.269 F1350
;LAYER:3
G1 Z0.8 F900
;TYPE:WALL-OUTER
G0 X157.675 Y124.96 F7200
G1 X155.107 Y134.542 E140.686 F1500
G1 X150.147 Y143.133 E141.103 F1500
G1 X143.133 Y150.147 E141.519 F1500
G1 X134.542 Y155.107 E141.936 F1500
G1 X124.96 Y157.675 E142.353 F1500
G1 X115.04 Y157.675 E142.769 F1500
G1 X105.458 Y155.107 E143.186 F1500
G1 X96.867 Y150.147 E143.603 F1500
G1 X89.853 Y143.133 E144.019 F1500
G1 X84.893 Y134.542 E144.436 F1500
G1 X82.325 Y124.96 E144.853 F1500
G1 X82.325 Y115.04 E145.269 F1500
G1 X84.893 Y105.458 E145.686 F1500
G1 X89.853 Y96.867 E146.102 F1500
G1 X96.867 Y89.853 E146.519 F1500
G1 X105.458 Y84.893 E146.936 F1500
G1 X115.04 Y82.325 E147.352 F1500
G1 X124.96 Y82.325 E147.769 F1500
G1 X134.542 Y84.893 E148.186 F1500
G1 X143.133 Y89.853 E148.602 F1500
G1 X150.147 Y96.867 E149.019 F1500
G1 X155.107 Y105.458 E149.436 F1500
G1 X157.675 Y115.04 E149.852 F1500
G1 X157.675 Y124.96 E150.269 F1500
;TYPE:WALL-INNER
G0 X153.709 Y124.438 F7200
G1 X151.412 Y133.011 E150.642 F1500
G1 X146.974 Y140.698 E151.014 F1500
G1 X140.698 Y146.974 E151.387 F1500
G1 X133.011 Y151.412 E151.76 F1500
G1 X124.438 Y153.709 E152.133 F1500
G1 X115.562 Y153.709 E152.506 F1500
G1 X106.989 Y151.412 E152.878 F1500
G1 X99.302 Y146.974 E153.251 F1500
G1 X93.026 Y140.698 E153.624 F1500
G1 X88.588 Y133.011 E153.997 F1500
G1 X86.291 Y124.438 E154.369 F1500
G1 X86.291 Y115.562 E154.742 F1500
G1 X88.588 Y106.989 E155.115 F1500
G1 X93.026 Y99.302 E155.488 F1500
G1 X99.302 Y93.026 E155.861 F1500
G1 X106.989 Y88.588 E156.233 F1500
G1 X115.562 Y86.291 E156.606 F1500
G1 X124.438 Y86.291 E156.979 F1500
G1 X133.011 Y88.588 E157.352 F1500
G1 X140.698 Y93.026 E157.724 F1500
G1 X146.974 Y99.302 E158.097 F1500
G1 X151.412 Y106.989 E158.47 F1500
G1 X153.709 Y115.562 E158.843 F1500
G1 X153.709 Y124.438 E159.216 F1500
;TYPE:FILL
G0 X149.862 Y111.678 F7200
G1 X128.322 Y90.138 E160.495 F2100
G0 X150.574 Y125.119 F7200
G1 X114.881 Y89.426 E162.615 F2100
G0 X147.34 Y134.612 F7200
G1 X105.388 Y92.66 E165.107 F2100
G0 X141.92 Y141.92 F7200
G1 X98.08 Y98.08 E167.711 F2100
G0 X134.612 Y147.34 F7200
G1 X92.66 Y105.388 E170.203 F2100
G0 X125.119 Y150.574 F7200
G1 X89.426 Y114.881 E172.323 F2100
G0 X111.678 Y149.862 F7200
G1 X90.138 Y128.322 E173.602 F2100
;LAYER:4
G1 Z1 F900
;TYPE:WALL-OUTER
G0 X158 Y120 F7200
G1 X156.705 Y129.835 E174.019 F1500
G1 X152.909 Y139 E174.436 F1500
G1 X146.87 Y146.87 E174.852 F1500
G1 X139 Y152.909 E175.269 F1500
G1 X129.835 Y156.705 E175.686 F1500
G1 X120 Y158 E176.102 F1500
G1 X110.165 Y156.705 E176.519 F1500
G1 X101 Y152.909 E176.935 F1500
G1 X93.13 Y146.87 E177.352 F1500
G1 X87.091 Y139 E177.769 F1500
G1 X83.295 Y129.835 E178.185 F1500
G1 X82 Y120 E178.602 F1500
G1 X83.295 Y110.165 E179.019 F1500
G1 X87.091 Y101 E179.435 F1500
G1 X93.13 Y93.13 E179.852 F1500
G1 X101 Y87.091 E180.269 F1500
G1 X110.165 Y83.295 E180.685 F1500
G1 X120 Y82 E181.102 F1500
G1 X129.835 Y83.295 E181.518 F1500
G1 X139 Y87.091 E181.935 F1500
G1 X146.87 Y93.13 E182.352 F1500
G1 X152.909 Y101 E182.768 F1500
G1 X156.705 Y110.165 E183.185 F1500
G1 X158 Y120 E183.602 F1500
;TYPE:WALL-INNER
G0 X154 Y120 F7200
G1 X152.841 Y128.8 E183.974 F1500
G1 X149.445 Y137 E184.347 F1500
G1 X144.042 Y144.042 E184.72 F1500
G1 X137 Y149.445 E185.093 F1500
G1 X128.8 Y152.841 E185.466 F1500
G1 X120 Y154 E185.838 F1500
G1 X111.2 Y152.841 E186.211 F1500
G1 X103 Y149.445 E186.584 F1500
G1 X95.958 Y144.042 E186.957 F1500
G1 X90.555 Y137 E187.329 F1500
G1 X87.159 Y128.8 E187.702 F1500
G1 X86 Y120 E188.075 F1500
G1 X87.159 Y111.2 E188.448 F1500
G1 X90.555 Y103 E188.821 F1500
G1 X95.958 Y95.958 E189.193 F1500
G1 X103 Y90.555 E189.566 F1500
G1 X111.2 Y87.159 E189.939 F1500
G1 X120 Y86 E190.312 F1500
G1 X128.8 Y87.159 E190.685 F1500
G1 X137 Y90.555 E191.057 F1500
G1 X144.042 Y95.958 E191.43 F1500
G1 X149.445 Y103 E191.803 F1500
G1 X152.841 Y111.2 E192.176 F1500
G1 X154 Y120 E192.548 F1500
;TYPE:FILL
G0 X90.138 Y111.678 F7200
G1 X111.678 Y90.138 E193.828 F2100
G0 X89.426 Y125.119 F7200
G1 X125.119 Y89.426 E195.948 F2100
G0 X92.66 Y134.612 F7200
G1 X134.612 Y92.66 E198.44 F2100
G0 X98.08 Y141.92 F7200
G1 X141.92 Y98.08 E201.044 F2100
G0 X105.388 Y147.34 F7200
G1 X147.34 Y105.388 E203.536 F2100
G0 X114.881 Y150.574 F7200
G1 X150.574 Y114.881 E205.656 F2100
G0 X128.322 Y149.862 F7200
G1 X149.862 Y128.322 E206.935 F2100
;LAYER:5
G1 Z1.2 F900
;TYPE:WALL-OUTER
G0 X157.675 Y124.96 F7200
G1 X155.107 Y134.542 E207.352 F1500
G1 X150.147 Y143.133 E207.768 F1500
G1 X143.133 Y150.147 E208.185 F1500
G1 X134.542 Y155.107 E208.602 F1500
G1 X124.96 Y157.675 E209.018 F1500
G1 X115.04 Y157.675 E209.435 F1500
G1 X105.458 Y155.107 E209.852 F1500
G1 X96.867 Y150.147 E210.268 F1500
G1 X89.853 Y143.133 E210.685 F1500
G1 X84.893 Y134.542 E211.102 F1500
G1 X82.325 Y124.96 E211.518 F1500
G1 X82.325 Y115.04 E211.935 F1500
G1 X84.893 Y105.458 E212.351 F1500
G1 X89.853 Y96.867 E212.768 F1500
G1 X96.867 Y89.853 E213.185 F1500
G1 X105.458 Y84.893 E213.601 F1500
G1 X115.04 Y82.325 E214.018 F1500
G1 X124.96 Y82.325 E214.435 F1500
G1 X134.542 Y84.893 E214.851 F1500
G1 X143.133 Y89.853 E215.268 F1500
G1 X150.147 Y96.867 E215.685 F1500
G1 X155.107 Y105.458 E216.101 F1500
G1 X157.675 Y115.04 E216.518 F1500
G1 X157.675 Y124.96 E216.935 F1500
;TYPE:WALL-INNER
G0 X153.709 Y124.438 F7200
G1 X151.412 Y133.011 E217.307 F1500
G1 X146.974 Y140.698 E217.68 F1500
G1 X140.698 Y146.974 E218.053 F1500
G1 X133.011 Y151.412 E218.426 F1500
G1 X124.438 Y153.709 E218.798 F1500
G1 X115.562 Y153.709 E219.171 F1500
G1 X106.989 Y151.412 E219.544 F1500
G1 X99.302 Y146.974 E219.917 F1500
G1 X93.026 Y140.698 E220.29 F1500
G1 X88.588 Y133.011 E220.662 F1500
G1 X86.291 Y124.438 E221.035 F1500
G1 X86.291 Y115.562 E221.408 F1500
G1 X88.588 Y106.989 E221.781 F1500
G1 X93.026 Y99.302 E222.153 F1500
G1 X99.302 Y93.026 E222.526 F1500
G1 X106.989 Y88.588 E222.899 F1500
G1 X115.562 Y86.291 E223.272 F1500
G1 X124.438 Y86.291 E223.645 F1500
G1 X133.011 Y88.588 E224.017 F1500
G1 X140.698 Y93.026 E224.39 F1500
G1 X146.974 Y99.302 E224.763 F1500
G1 X151.412 Y106.989 E225.136 F1500
G1 X153.709 Y115.562 E225.509 F1500
G1 X153.709 Y124.438 E225.881 F1500
;TYPE:FILL
G0 X149.862 Y111.678 F7200
G1 X128.322 Y90.138 E227.161 F2100
G0 X150.574 Y125.119 F7200
G1 X114.881 Y89.426 E229.281 F2100
G0 X147.34 Y134.612 F7200
G1 X105.388 Y92.66 E231.773 F2100
G0 X141.92 Y141.92 F7200
G1 X98.08 Y98.08 E234.377 F2100
G0 X134.612 Y147.34 F7200
G1 X92.66 Y105.388 E236.869 F2100
G0 X125.119 Y150.574 F7200
G1 X89.426 Y114.881 E238.989 F2100
G0 X111.678 Y149.862 F7200
G1 X90.138 Y128.322 E240.268 F2100
;LAYER:6
G1 Z1.4 F900
;TYPE:WALL-OUTER
G0 X158 Y120 F7200
G1 X156.705 Y129.835 E240.685 F1500
G1 X152.909 Y139 E241.101 F1500
G1 X146.87 Y146.87 E241.518 F1500
G1 X139 Y152.909 E241.935 F1500
G1 X129.835 Y156.705 E242.351 F1500
G1 X120 Y158 E242.768 F1500
G1 X110.165 Y156.705 E243.184 F1500
G1 X101 Y152.909 E243.601 F1500
G1 X93.13 Y146.87 E244.018 F1500
G1 X87.091 Y139 E244.434 F1500
G1 X83.295 Y129.835 E244.851 F1500
G1 X82 Y120 E245.268 F1500
G1 X83.295 Y110.165 E245.684 F1500
G1 X87.091 Y101 E246.101 F1500
G1 X93.13 Y93.13 E246.518 F1500
G1 X101 Y87.091 E246.934 F1500
G1 X110.165 Y83.295 E247.351 F1500
G1 X120 Y82 E247.768 F1500
G1 X129.835 Y83.295 E248.184 F1500
G1 X139 Y87.091 E248.601 F1500
G1 X146.87 Y93.13 E249.017 F1500
G1 X152.909 Y101 E249.434 F1500
G1 X156.705 Y110.165 E249.851 F1500
G1 X158 Y120 E250.267 F1500
;TYPE:WALL-INNER
G0 X154 Y120 F7200
G1 X152.841 Y128.8 E250.64 F1500
G1 X149.445 Y137 E251.013 F1500
G1 X144.042 Y144.042 E251.386 F1500
G1 X137 Y149.445 E251.759 F1500
G1 X128.8 Y152.841 E252.131 F1500
G1 X120 Y154 E252.504 F1500
G1 X111.2 Y152.841 E252.877 F1500
G1 X103 Y149.445 E253.25 F1500
G1 X95.958 Y144.042 E253.622 F1500
G1 X90.555 Y137 E253.995 F1500
G1 X87.159 Y128.8 E254.368 F1500
G1 X86 Y120 E254.741 F1500
G1 X87.159 Y111.2 E255.114 F1500
G1 X90.555 Y103 E255.486 F1500
G1 X95.958 Y95.958 E255.859 F1500
G1 X103 Y90.555 E256.232 F1500
G1 X111.2 Y87.159 E256.605 F1500
G1 X120 Y86 E256.977 F1500
G1 X128.8 Y87.159 E257.35 F1500
G1 X137 Y90.555 E257.723 F1500
G1 X144.042 Y95.958 E258.096 F1500
G1 X149.445 Y103 E258.469 F1500
G1 X152.841 Y111.2 E258.841 F1500
G1 X154 Y120 E259.214 F1500
;TYPE:FILL
G0 X90.138 Y111.678 F7200
G1 X111.678 Y90.138 E260.494 F2100
G0 X89.426 Y125.119 F7200
G1 X125.119 Y89.426 E262.614 F2100
G0 X92.66 Y134.612 F7200
G1 X134.612 Y92.66 E265.106 F2100
G0 X98.08 Y141.92 F7200
G1 X141.92 Y98.08 E267.71 F2100
G0 X105.388 Y147.34 F7200
G1 X147.34 Y105.388 E270.201 F2100
G0 X114.881 Y150.574 F7200
G1 X150.574 Y114.881 E272.321 F2100
G0 X128.322 Y149.862 F7200
G1 X149.862 Y128.322 E273.601 F2100
;LAYER:7
G1 Z1.6 F900
;TYPE:WALL-OUTER
G0 X157.675 Y124.96 F7200
G1 X155.107 Y134.542 E274.018 F1500
G1 X150.147 Y143.133 E274.434 F1500
G1 X143.133 Y150.147 E274.851 F1500
G1 X134.542 Y155.107 E275.267 F1500
G1 X124.96 Y157.675 E275.684 F1500
G1 X115.04 Y157.675 E276.101 F1500
G1 X105.458 Y155.107 E276.517 F1500
G1 X96.867 Y150.147 E276.934 F1500
G1 X89.853 Y143.133 E277.351 F1500
G1 X84.893 Y134.542 E277.767 F1500
G1 X82.325 Y124.96 E278.184 F1500
G1 X82.325 Y115.04 E278.601 F1500
G1 X84.893 Y105.458 E279.017 F1500
G1 X89.853 Y96.867 E279.434 F1500
G1 X96.867 Y89.853 E279.85 F1500
G1 X105.458 Y84.893 E280.267 F1500
G1 X115.04 Y82.325 E280.684 F1500
G1 X124.96 Y82.325 E281.1 F1500
G1 X134.542 Y84.893 E281.517 F1500
G1 X143.133 Y89.853 E281.934 F1500
G1 X150.147 Y96.867 E282.35 F1500
G1 X155.107 Y105.458 E282.767 F1500
G1 X157.675 Y115.04 E283.184 F1500
G1 X157.675 Y124.96 E283.6 F1500
;TYPE:WALL-INNER
G0 X153.709 Y124.438 F7200
G1 X151.412 Y133.011 E283.973 F1500
G1 X146.974 Y140.698 E284.346 F1500
G1 X140.698 Y146.974 E284.719 F1500
G1 X133.011 Y151.412 E285.091 F1500
G1 X124.438 Y153.709 E285.464 F1500
G1 X115.562 Y153.709 E285.837 F1500
G1 X106.989 Y151.412 E286.21 F1500
G1 X99.302 Y146.974 E286.582 F1500
G1 X93.026 Y140.698 E286.955 F1500
G1 X88.588 Y133.011 E287.328 F1500
G1 X86.291 Y124.438 E287.701 F1500
G1 X86.291 Y115.562 E288.074 F1500
G1 X88.588 Y106.989 E288.446 F1500
G1 X93.026 Y99.302 E288.819 F1500
G1 X99.302 Y93.026 E289.192 F1500
G1 X106.989 Y88.588 E289.565 F1500
G1 X115.562 Y86.291 E289.938 F1500
G1 X124.438 Y86.291 E290.31 F1500
G1 X133.011 Y88.588 E290.683 F1500
G1 X140.698 Y93.026 E291.056 F1500
G1 X146.974 Y99.302 E291.429 F1500
G1 X151.412 Y106.989 E291.801 F1500
G1 X153.709 Y115.562 E292.174 F1500
G1 X153.709 Y124.438 E292.547 F1500
;TYPE:FILL
G0 X149.862 Y111.678 F7200
G1 X128.322 Y90.138 E293.826 F2100
G0 X150.574 Y125.119 F7200
G1 X114.881 Y89.426 E295.947 F2100
G0 X147.34 Y134.612 F7200
G1 X105.388 Y92.66 E298.438 F2100
G0 X141.92 Y141.92 F7200
G1 X98.08 Y98.08 E301.042 F2100
G0 X134.612 Y147.34 F7200
G1 X92.66 Y105.388 E303.534 F2100
G0 X125.119 Y150.574 F7200
G1 X89.426 Y114.881 E305.654 F2100
G0 X111.678 Y149.862 F7200
G1 X90.138 Y128.322 E306.934 F2100
;LAYER:8
G1 Z1.8 F900
;TYPE:WALL-OUTER
G0 X158 Y120 F7200
G1 X156.705 Y129.835 E307.35 F1500
G1 X152.909 Y139 E307.767 F1500
G1 X146.87 Y146.87 E308.184 F1500
G1 X139 Y152.909 E308.6 F1500
G1 X129.835 Y156.705 E309.017 F1500
G1 X120 Y158 E309.434 F1500
G1 X110.165 Y156.705 E309.85 F1500
G1 X101 Y152.909 E310.267 F1500
G1 X93.13 Y146.87 E310.683 F1500
G1 X87.091 Y139 E311.1 F1500
G1 X83.295 Y129.835 E311.517 F1500
G1 X82 Y120 E311.933 F1500
G1 X83.295 Y110.165 E312.35 F1500
G1 X87.091 Y101 E312.767 F1500
G1 X93.13 Y93.13 E313.183 F1500
G1 X101 Y87.091 E313.6 F1500
G1 X110.165 Y83.295 E314.017 F1500
G1 X120 Y82 E314.433 F1500
G1 X129.835 Y83.295 E314.85 F1500
G1 X139 Y87.091 E315.267 F1500
G1 X146.87 Y93.13 E315.683 F1500
G1 X152.909 Y101 E316.1 F1500
G1 X156.705 Y110.165 E316.516 F1500
G1 X158 Y120 E316.933 F1500
;TYPE:WALL-INNER
G0 X154 Y120 F7200
G1 X152.841 Y128.8 E317.306 F1500
G1 X149.445 Y137 E317.679 F1500
G1 X144.042 Y144.042 E318.051 F1500
G1 X137 Y149.445 E318.424 F1500
G1 X128.8 Y152.841 E318.797 F1500
G1 X120 Y154 E319.17 F1500
G1 X111.2 Y152.841 E319.543 F1500
G1 X103 Y149.445 E319.915 F1500
G1 X95.958 Y144.042 E320.288 F1500
G1 X90.555 Y137 E320.661 F1500
G1 X87.159 Y128.8 E321.034 F1500
G1 X86 Y120 E321.406 F1500
G1 X87.159 Y111.2 E321.779 F1500
G1 X90.555 Y103 E322.152 F1500
G1 X95.958 Y95.958 E322.525 F1500
G1 X103 Y90.555 E322.898 F1500
G1 X111.2 Y87.159 E323.27 F1500
G1 X120 Y86 E323.643 F1500
G1 X128.8 Y87.159 E324.016 F1500
G1 X137 Y90.555 E324.389 F1500
G1 X144.042 Y95.958 E324.762 F1500
G1 X149.445 Y103 E325.134 F1500
G1 X152.841 Y111.2 E325.507 F1500
G1 X154 Y120 E325.88 F1500
;TYPE:FILL
G0 X90.138 Y111.678 F7200
G1 X111.678 Y90.138 E327.159 F2100
G0 X89.426 Y125.119 F7200
G1 X125.119 Y89.426 E329.279 F2100
G0 X92.66 Y134.612 F7200
G1 X134.612 Y92.66 E331.771 F2100
G0 X98.08 Y141.92 F7200
G1 X141.92 Y98.08 E334.375 F2100
G0 X105.388 Y147.34 F7200
G1 X147.34 Y105.388 E336.867 F2100
G0 X114.881 Y150.574 F7200
G1 X150.574 Y114.881 E338.987 F2100
G0 X128.322 Y149.862 F7200
G1 X149.862 Y128.322 E340.267 F2100
;LAYER:9
G1 Z2 F900
;TYPE:WALL-OUTER
G0 X157.675 Y124.96 F7200
G1 X155.107 Y134.542 E340.683 F1500
G1 X150.147 Y143.133 E341.1 F1500
G1 X143.133 Y150.147 E341.516 F1500
G1 X134.542 Y155.107 E341.933 F1500
G1 X124.96 Y157.675 E342.35 F1500
G1 X115.04 Y157.675 E342.766 F1500
G1 X105.458 Y155.107 E343.183 F1500
G1 X96.867 Y150.147 E343.6 F1500
G1 X89.853 Y143.133 E344.016 F1500
G1 X84.893 Y134.542 E344.433 F1500
G1 X82.325 Y124.96 E344.85 F1500
G1 X82.325 Y115.04 E345.266 F1500
G1 X84.893 Y105.458 E345.683 F1500
G1 X89.853 Y96.867 E346.1 F1500
G1 X96.867 Y89.853 E346.516 F1500
G1 X105.458 Y84.893 E346.933 F1500
G1 X115.04 Y82.325 E347.349 F1500
G1 X124.96 Y82.325 E347.766 F1500
G1 X134.542 Y84.893 E348.183 F1500
G1 X143.133 Y89.853 E348.599 F1500
G1 X150.147 Y96.867 E349.016 F1500
G1 X155.107 Y105.458 E349.433 F1500
G1 X157.675 Y115.04 E349.849 F1500
G1 X157.675 Y124.96 E350.266 F1500
;TYPE:WALL-INNER
G0 X153.709 Y124.438 F7200
G1 X151.412 Y133.011 E350.639 F1500
G1 X146.974 Y140.698 E351.011 F1500
G1 X140.698 Y146.974 E351.384 F1500
G1 X133.011 Y151.412 E351.757 F1500
G1 X124.438 Y153.709 E352.13 F1500
G1 X115.562 Y153.709 E352.503 F1500
G1 X106.989 Y151.412 E352.875 F1500
G1 X99.302 Y146.974 E353.248 F1500
G1 X93.026 Y140.698 E353.621 F1500
G1 X88.588 Y133.011 E353.994 F1500
G1 X86.291 Y124.438 E354.367 F1500
G1 X86.291 Y115.562 E354.739 F1500
G1 X88.588 Y106.989 E355.112 F1500
G1 X93.026 Y99.302 E355.485 F1500
G1 X99.302 Y93.026 E355.858 F1500
G1 X106.989 Y88.588 E356.23 F1500
G1 X115.562 Y86.291 E356.603 F1500
G1 X124.438 Y86.291 E356.976 F1500
G1 X133.011 Y88.588 E357.349 F1500
G1 X140.698 Y93.026 E357.722 F1500
G1 X146.974 Y99.302 E358.094 F1500
G1 X151.412 Y106.989 E358.467 F1500
G1 X153.709 Y115.562 E358.84 F1500
G1 X153.709 Y124.438 E359.213 F1500
;TYPE:FILL
G0 X149.862 Y111.678 F7200
G1 X128.322 Y90.138 E360.492 F2100
G0 X150.574 Y125.119 F7200
G1 X114.881 Y89.426 E362.612 F2100
G0 X147.34 Y134.612 F7200
G1 X105.388 Y92.66 E365.104 F2100
G0 X141.92 Y141.92 F7200
G1 X98.08 Y98.08 E367.708 F2100
G0 X134.612 Y147.34 F7200
G1 X92.66 Y105.388 E370.2 F2100
G0 X125.119 Y150.574 F7200
G1 X89.426 Y114.881 E372.32 F2100
G0 X111.678 Y149.862 F7200
G1 X90.138 Y128.322 E373.599 F2100
;LAYER:10
G1 Z2.2 F900
;TYPE:WALL-OUTER
G0 X158 Y120 F7200
G1 X156.705 Y129.835 E374.016 F1500
G1 X152.909 Y139 E374.433 F1500
G1 X146.87 Y146.87 E374.849 F1500
G1 X139 Y152.909 E375.266 F1500
G1 X129.835 Y156.705 E375.683 F1500
G1 X120 Y158 E376.099 F1500
G1 X110.165 Y156.705 E376.516 F1500
G1 X101 Y152.909 E376.933 F1500
G1 X93.13 Y146.87 E377.349 F1500
G1 X87.091 Y139 E377.766 F1500
G1 X83.295 Y129.835 E378.182 F1500
G1 X82 Y120 E378.599 F1500
G1 X83.295 Y110.165 E379.016 F1500
G1 X87.091 Y101 E379.432 F1500
G1 X93.13 Y93.13 E379.849 F1500
G1 X101 Y87.091 E380.266 F1500
G1 X110.165 Y83.295 E380.682 F1500
G1 X120 Y82 E381.099 F1500
G1 X129.835 Y83.295 E381.516 F1500
G1 X139 Y87.091 E381.932 F1500
G1 X146.87 Y93.13 E382.349 F1500
G1 X152.909 Y101 E382.765 F1500
G1 X156.705 Y110.165 E383.182 F1500
G1 X158 Y120 E383.599 F1500
;TYPE:WALL-INNER
G0 X154 Y120 F7200
G1 X152.841 Y128.8 E383.972 F1500
G1 X149.445 Y137 E384.344 F1500
G1 X144.042 Y144.042 E384.717 F1500
G1 X137 Y149.445 E385.09 F1500
G1 X128.8 Y152.841 E385.463 F1500
G1 X120 Y154 E385.835 F1500
G1 X111.2 Y152.841 E386.208 F1500
G1 X103 Y149.445 E386.581 F1500
G1 X95.958 Y144.042 E386.954 F1500
G1 X90.555 Y137 E387.327 F1500
G1 X87.159 Y128.8 E387.699 F1500
G1 X86 Y120 E388.072 F1500
G1 X87.159 Y111.2 E388.445 F1500
G1 X90.555 Y103 E388.818 F1500
G1 X95.958 Y95.958 E389.191 F1500
G1 X103 Y90.555 E389.563 F1500
G1 X111.2 Y87.159 E389.936 F1500
G1 X120 Y86 E390.309 F1500
G1 X128.8 Y87.159 E390.682 F1500
G1 X137 Y90.555 E391.054 F1500
G1 X144.042 Y95.958 E391.427 F1500
G1 X149.445 Y103 E391.8 F1500
G1 X152.841 Y111.2 E392.173 F1500
G1 X154 Y120 E392.546 F1500
;TYPE:FILL
G0 X90.138 Y111.678 F7200
G1 X111.678 Y90.138 E393.825 F2100
G0 X89.426 Y125.119 F7200
G1 X125.119 Y89.426 E395.945 F2100
G0 X92.66 Y134.612 F7200
G1 X134.612 Y92.66 E398.437 F2100
G0 X98.08 Y141.92 F7200
G1 X141.92 Y98.08 E401.041 F2100
G0 X105.388 Y147.34 F7200
G1 X147.34 Y105.388 E403.533 F2100
G0 X114.881 Y150.574 F7200
G1 X150.574 Y114.881 E405.653 F2100
G0 X128.322 Y149.862 F7200
G1 X149.862 Y128.322 E406.932 F2100
;LAYER:11
G1 Z2.4 F900
;TYPE:WALL-OUTER
G0 X157.675 Y124.96 F7200
G1 X155.107 Y134.542 E407.349 F1500
G1 X150.147 Y143.133 E407.766 F1500
G1 X143.133 Y150.147 E408.182 F1500
G1 X134.542 Y155.107 E408.599 F1500
G1 X124.96 Y157.675 E409.015 F1500
G1 X115.04 Y157.675 E409.432 F1500
G1 X105.458 Y155.107 E409.849 F1500
G1 X96.867 Y150.147 E410.265 F1500
G1 X89.853 Y143.133 E410.682 F1500
G1 X84.893 Y134.542 E411.099 F1500
G1 X82.325 Y124.96 E411.515 F1500
G1 X82.325 Y115.04 E411.932 F1500
G1 X84.893 Y105.458 E412.349 F1500
G1 X89.853 Y96.867 E412.765 F1500
G1 X96.867 Y89.853 E413.182 F1500
G1 X105.458 Y84.893 E413.599 F1500
G1 X115.04 Y82.325 E414.015 F1500
G1 X124.96 Y82.325 E414.432 F1500
G1 X134.542 Y84.893 E414.848 F1500
G1 X143.133 Y89.853 E415.265 F1500
G1 X150.147 Y96.867 E415.682 F1500
G1 X155.107 Y105.458 E416.098 F1500
G1 X157.675 Y115.04 E416.515 F1500
G1 X157.675 Y124.96 E416.932 F1500
;TYPE:WALL-INNER
G0 X153.709 Y124.438 F7200
G1 X151.412 Y133.011 E417.304 F1500
G1 X146.974 Y140.698 E417.677 F1500
G1 X140.698 Y146.974 E418.05 F1500
G1 X133.011 Y151.412 E418.423 F1500
G1 X124.438 Y153.709 E418.796 F1500
G1 X115.562 Y153.709 E419.168 F1500
G1 X106.989 Y151.412 E419.541 F1500
G1 X99.302 Y146.974 E419.914 F1500
G1 X93.026 Y140.698 E420.287 F1500
G1 X88.588 Y133.011 E420.659 F1500
G1 X86.291 Y124.438 E421.032 F1500
G1 X86.291 Y115.562 E421.405 F1500
G1 X88.588 Y106.989 E421.778 F1500
G1 X93.026 Y99.302 E422.151 F1500
G1 X99.302 Y93.026 E422.523 F1500
G1 X106.989 Y88.588 E422.896 F1500
G1 X115.562 Y86.291 E423.269 F1500
G1 X124.438 Y86.291 E423.642 F1500
G1 X133.011 Y88.588 E424.015 F1500
G1 X140.698 Y93.026 E424.387 F1500
G1 X146.974 Y99.302 E424.76 F1500
G1 X151.412 Y106.989 E425.133 F1500
G1 X153.709 Y115.562 E425.506 F1500
G1 X153.709 Y124.438 E425.878 F1500
;TYPE:FILL
G0 X149.862 Y111.678 F7200
G1 X128.322 Y90.138 E427.158 F2100
G0 X150.574 Y125.119 F7200
G1 X114.881 Y89.426 E429.278 F2100
G0 X147.34 Y134.612 F7200
G1 X105.388 Y92.66 E431.77 F2100
G0 X141.92 Y141.92 F7200
G1 X98.08 Y98.08 E434.374 F2100
G0 X134.612 Y147.34 F7200
G1 X92.66 Y105.388 E436.866 F2100
G0 X125.119 Y150.574 F7200
G1 X89.426 Y114.881 E438.986 F2100
G0 X111.678 Y149.862 F7200
G1 X90.138 Y128.322 E440.265 F2100
;LAYER:12
G1 Z2.6 F900
;TYPE:WALL-OUTER
G0 X158 Y120 F7200
G1 X156.705 Y129.835 E440.682 F1500
G1 X152.909 Y139 E441.098 F1500
G1 X146.87 Y146.87 E441.515 F1500
G1 X139 Y152.909 E441.932 F1500
G1 X129.835 Y156.705 E442.348 F1500
G1 X120 Y158 E442.765 F1500
G1 X110.165 Y156.705 E443.182 F1500
G1 X101 Y152.909 E443.598 F1500
G1 X93.13 Y146.87 E444.015 F1500
G1 X87.091 Y139 E444.432 F1500
G1 X83.295 Y129.835 E444.848 F1500
G1 X82 Y120 E445.265 F1500
G1 X83.295 Y110.165 E445.681 F1500
G1 X87.091 Y101 E446.098 F1500
G1 X93.13 Y93.13 E446.515 F1500
G1 X101 Y87.091 E446.931 F1500
G1 X110.165 Y83.295 E447.348 F1500
G1 X120 Y82 E447.765 F1500
G1 X129.835 Y83.295 E448.181 F1500
G1 X139 Y87.091 E448.598 F1500
G1 X146.87 Y93.13 E449.015 F1500
G1 X152.909 Y101 E449.431 F1500
G1 X156.705 Y110.165 E449.848 F1500
G1 X158 Y120 E450.264 F1500
;TYPE:WALL-INNER
G0 X154 Y120 F7200
G1 X152.841 Y128.8 E450.637 F1500
G1 X149.445 Y137 E451.01 F1500
G1 X144.042 Y144.042 E451.383 F1500
G1 X137 Y149.445 E451.756 F1500
G1 X128.8 Y152.841 E452.128 F1500
G1 X120 Y154 E452.501 F1500
G1 X111.2 Y152.841 E452.874 F1500
G1 X103 Y149.445 E453.247 F1500
G1 X95.958 Y144.042 E453.62 F1500
G1 X90.555 Y137 E453.992 F1500
G1 X87.159 Y128.8 E454.365 F1500
G1 X86 Y120 E454.738 F1500
G1 X87.159 Y111.2 E455.111 F1500
G1 X90.555 Y103 E455.483 F1500
G1 X95.958 Y95.958 E455.856 F1500
G1 X103 Y90.555 E456.229 F1500
G1 X111.2 Y87.159 E456.602 F1500
G1 X120 Y86 E456.975 F1500
G1 X128.8 Y87.159 E457.347 F1500
G1 X137 Y90.555 E457.72 F1500
G1 X144.042 Y95.958 E458.093 F1500
G1 X149.445 Y103 E458.466 F1500
G1 X152.841 Y111.2 E458.838 F1500
G1 X154 Y120 E459.211 F1500
;TYPE:FILL
G0 X90.138 Y111.678 F7200
G1 X111.678 Y90.138 E460.491 F2100
G0 X89.426 Y125.119 F7200
G1 X125.119 Y89.426 E462.611 F2100
G0 X92.66 Y134.612 F7200
G1 X134.612 Y92.66 E465.103 F2100
G0 X98.08 Y141.92 F7200
G1 X141.92 Y98.08 E467.707 F2100
G0 X105.388 Y147.34 F7200
G1 X147.34 Y105.388 E470.198 F2100
G0 X114.881 Y150.574 F7200
G1 X150.574 Y114.881 E472.319 F2100
G0 X128.322 Y149.862 F7200
G1 X149.862 Y128.322 E473.598 F2100
;LAYER:13
G1 Z2.8 F900
;TYPE:WALL-OUTER
G0 X157.675 Y124.96 F7200
G1 X155.107 Y134.542 E474.015 F1500
G1 X150.147 Y143.133 E474.431 F1500
G1 X143.133 Y150.147 E474.848 F1500
G1 X134.542 Y155.107 E475.265 F1500
G1 X124.96 Y157.675 E475.681 F1500
G1 X115.04 Y157.675 E476.098 F1500
G1 X105.458 Y155.107 E476.514 F1500
G1 X96.867 Y150.147 E476.931 F1500
G1 X89.853 Y143.133 E477.348 F1500
G1 X84.893 Y134.542 E477.764 F1500
G1 X82.325 Y124.96 E478.181 F1500
G1 X82.325 Y115.04 E478.598 F1500
G1 X84.893 Y105.458 E479.014 F1500
G1 X89.853 Y96.867 E479.431 F1500
G1 X96.867 Y89.853 E479.848 F1500
G1 X105.458 Y84.893 E480.264 F1500
G1 X115.04 Y82.325 E480.681 F1500
G1 X124.96 Y82.325 E481.097 F1500
G1 X134.542 Y84.893 E481.514 F1500
G1 X143.133 Y89.853 E481.931 F1500
G1 X150.147 Y96.867 E482.347 F1500
G1 X155.107 Y105.458 E482.764 F1500
G1 X157.675 Y115.04 E483.181 F1500
G1 X157.675 Y124.96 E483.597 F1500
;TYPE:WALL-INNER
G0 X153.709 Y124.438 F7200
G1 X151.412 Y133.011 E483.97 F1500
G1 X146.974 Y140.698 E484.343 F1500
G1 X140.698 Y146.974 E484.716 F1500
G1 X133.011 Y151.412 E485.088 F1500
G1 X124.438 Y153.709 E485.461 F1500
G1 X115.562 Y153.709 E485.834 F1500
G1 X106.989 Y151.412 E486.207 F1500
G1 X99.302 Y146.974 E486.58 F1500
G1 X93.026 Y140.698 E486.952 F1500
G1 X88.588 Y133.011 E487.325 F1500
G1 X86.291 Y124.438 E487.698 F1500
G1 X86.291 Y115.562 E488.071 F1500
G1 X88.588 Y106.989 E488.444 F1500
G1 X93.026 Y99.302 E488.816 F1500
G1 X99.302 Y93.026 E489.189 F1500
G1 X106.989 Y88.588 E489.562 F1500
G1 X115.562 Y86.291 E489.935 F1500
G1 X124.438 Y86.291 E490.307 F1500
G1 X133.011 Y88.588 E490.68 F1500
G1 X140.698 Y93.026 E491.053 F1500
G1 X146.974 Y99.302 E491.426 F1500
G1 X151.412 Y106.989 E491.799 F1500
G1 X153.709 Y115.562 E492.171 F1500
G1 X153.709 Y124.438 E492.544 F1500
;TYPE:FILL
G0 X149.862 Y111.678 F7200
G1 X128.322 Y90.138 E493.824 F2100
G0 X150.574 Y125.119 F7200
G1 X114.881 Y89.426 E495.944 F2100
G0 X147.34 Y134.612 F7200
G1 X105.388 Y92.66 E498.435 F2100
G0 X141.92 Y141.92 F7200
G1 X98.08 Y98.08 E501.039 F2100
G0 X134.612 Y147.34 F7200
G1 X92.66 Y105.388 E503.531 F2100
G0 X125.119 Y150.574 F7200
G1 X89.426 Y114.881 E505.651 F2100
G0 X111.678 Y149.862 F7200
G1 X90.138 Y128.322 E506.931 F2100
;LAYER:14
G1 Z3 F900
;TYPE:WALL-OUTER
G0 X158 Y120 F7200
G1 X156.705 Y129.835 E507.347 F1500
G1 X152.909 Y139 E507.764 F1500
G1 X146.87 Y146.87 E508.181 F1500
G1 X139 Y152.909 E508.597 F1500
G1 X129.835 Y156.705 E509.014 F1500
G1 X120 Y158 E509.431 F1500
G1 X110.165 Y156.705 E509.847 F1500
G1 X101 Y152.909 E510.264 F1500
G1 X93.13 Y146.87 E510.681 F1500
G1 X87.091 Y139 E511.097 F1500
G1 X83.295 Y129.835 E511.514 F1500
G1 X82 Y120 E511.931 F1500
G1 X83.295 Y110.165 E512.347 F1500
G1 X87.091 Y101 E512.764 F1500
G1 X93.13 Y93.13 E513.18 F1500
G1 X101 Y87.091 E513.597 F1500
G1 X110.165 Y83.295 E514.014 F1500
G1 X120 Y82 E514.43 F1500
G1 X129.835 Y83.295 E514.847 F1500
G1 X139 Y87.091 E515.264 F1500
G1 X146.87 Y93.13 E515.68 F1500
G1 X152.909 Y101 E516.097 F1500
G1 X156.705 Y110.165 E516.514 F1500
G1 X158 Y120 E516.93 F1500
;TYPE:WALL-INNER
G0 X154 Y120 F7200
G1 X152.841 Y128.8 E517.303 F1500
G1 X149.445 Y137 E517.676 F1500
G1 X144.042 Y144.042 E518.049 F1500
G1 X137 Y149.445 E518.421 F1500
G1 X128.8 Y152.841 E518.794 F1500
G1 X120 Y154 E519.167 F1500
G1 X111.2 Y152.841 E519.54 F1500
G1 X103 Y149.445 E519.912 F1500
G1 X95.958 Y144.042 E520.285 F1500
G1 X90.555 Y137 E520.658 F1500
G1 X87.159 Y128.8 E521.031 F1500
G1 X86 Y120 E521.404 F1500
G1 X87.159 Y111.2 E521.776 F1500
G1 X90.555 Y103 E522.149 F1500
G1 X95.958 Y95.958 E522.522 F1500
G1 X103 Y90.555 E522.895 F1500
G1 X111.2 Y87.159 E523.267 F1500
G1 X120 Y86 E523.64 F1500
G1 X128.8 Y87.159 E524.013 F1500
G1 X137 Y90.555 E524.386 F1500
G1 X144.042 Y95.958 E524.759 F1500
G1 X149.445 Y103 E525.131 F1500
G1 X152.841 Y111.2 E525.504 F1500
G1 X154 Y120 E525.877 F1500
;TYPE:FILL
G0 X90.138 Y111.678 F7200
G1 X111.678 Y90.138 E527.156 F2100
G0 X89.426 Y125.119 F7200
G1 X125.119 Y89.426 E529.276 F2100
G0 X92.66 Y134.612 F7200
G1 X134.612 Y92.66 E531.768 F2100
G0 X98.08 Y141.92 F7200
G1 X141.92 Y98.08 E534.372 F2100
G0 X105.388 Y147.34 F7200
G1 X147.34 Y105.388 E536.864 F2100
G0 X114.881 Y150.574 F7200
G1 X150.574 Y114.881 E538.984 F2100
G0 X128.322 Y149.862 F7200
G1 X149.862 Y128.322 E540.264 F2100
;LAYER:15
G1 Z3.2 F900
;TYPE:WALL-OUTER
G0 X157.675 Y124.96 F7200
G1 X155.107 Y134.542 E540.68 F1500
G1 X150.147 Y143.133 E541.097 F1500
G1 X143.133 Y150.147 E541.514 F1500
G1 X134.542 Y155.107 E541.93 F1500
G1 X124.96 Y157.675 E542.347 F1500
G1 X115.04 Y157.675 E542.764 F1500
G1 X105.458 Y155.107 E543.18 F1500
G1 X96.867 Y150.147 E543.597 F1500
G1 X89.853 Y143.133 E544.013 F1500
G1 X84.893 Y134.542 E544.43 F1500
G1 X82.325 Y124.96 E544.847 F1500
G1 X82.325 Y115.04 E545.263 F1500
G1 X84.893 Y105.458 E545.68 F1500
G1 X89.853 Y96.867 E546.097 F1500
G1 X96.867 Y89.853 E546.513 F1500
G1 X105.458 Y84.893 E546.93 F1500
G1 X115.04 Y82.325 E547.347 F1500
G1 X124.96 Y82.325 E547.763 F1500
G1 X134.542 Y84.893 E548.18 F1500
G1 X143.133 Y89.853 E548.596 F1500
G1 X150.147 Y96.867 E549.013 F1500
G1 X155.107 Y105.458 E549.43 F1500
G1 X157.675 Y115.04 E549.846 F1500
G1 X157.675 Y124.96 E550.263 F1500
;TYPE:WALL-INNER
G0 X153.709 Y124.438 F7200
G1 X151.412 Y133.011 E550.636 F1500
G1 X146.974 Y140.698 E551.009 F1500
G1 X140.698 Y146.974 E551.381 F1500
G1 X133.011 Y151.412 E551.754 F1500
G1 X124.438 Y153.709 E552.127 F1500
G1 X115.562 Y153.709 E552.5 F1500
G1 X106.989 Y151.412 E552.873 F1500
G1 X99.302 Y146.974 E553.245 F1500
G1 X93.026 Y140.698 E553.618 F1500
G1 X88.588 Y133.011 E553.991 F1500
G1 X86.291 Y124.438 E554.364 F1500
G1 X86.291 Y115.562 E554.736 F1500
G1 X88.588 Y106.989 E555.109 F1500
G1 X93.026 Y99.302 E555.482 F1500
G1 X99.302 Y93.026 E555.855 F1500
G1 X106.989 Y88.588 E556.228 F1500
G1 X115.562 Y86.291 E556.6 F1500
G1 X124.438 Y86.291 E556.973 F1500
G1 X133.011 Y88.588 E557.346 F1500
G1 X140.698 Y93.026 E557.719 F1500
G1 X146.974 Y99.302 E558.091 F1500
G1 X151.412 Y106.989 E558.464 F1500
G1 X153.709 Y115.562 E558.837 F1500
G1 X153.709 Y124.438 E559.21 F1500
;TYPE:SOLID-FILL
G0 X149.862 Y111.678 F7200
G1 X128.322 Y90.138 E560.489 F1350
G0 X120.831 Y89.011 F7200
G1 X150.989 Y119.169 E562.281 F1350
G0 X150.574 Y125.119 F7200
G1 X114.881 Y89.426 E564.401 F1350
G0 X109.813 Y90.721 F7200
G1 X149.279 Y130.187 E566.745 F1350
G0 X147.34 Y134.612 F7200
G1 X105.388 Y92.66 E569.237 F1350
G0 X101.494 Y95.13 F7200
G1 X144.87 Y138.506 E571.813 F1350
G0 X141.92 Y141.92 F7200
G1 X98.08 Y98.08 E574.417 F1350
G0 X95.13 Y101.494 F7200
G1 X138.506 Y144.87 E576.993 F1350
G0 X134.612 Y147.34 F7200
G1 X92.66 Y105.388 E579.485 F1350
G0 X90.721 Y109.813 F7200
G1 X130.187 Y149.279 E581.829 F1350
G0 X125.119 Y150.574 F7200
G1 X89.426 Y114.881 E583.949 F1350
G0 X89.011 Y120.831 F7200
G1 X119.169 Y150.989 E585.741 F1350
G0 X111.678 Y149.862 F7200
G1 X90.138 Y128.322 E587.02 F1350
;LAYER:16
G1 Z3.4 F900
;TYPE:WALL-OUTER
G0 X158 Y120 F7200
G1 X156.705 Y129.835 E587.437 F1500
G1 X152.909 Y139 E587.853 F1500
G1 X146.87 Y146.87 E588.27 F1500
G1 X139 Y152.909 E588.687 F1500
G1 X129.835 Y156.705 E589.103 F1500
G1 X120 Y158 E589.52 F1500
G1 X110.165 Y156.705 E589.937 F1500
G1 X101 Y152.909 E590.353 F1500
G1 X93.13 Y146.87 E590.77 F1500
G1 X87.091 Y139 E591.187 F1500
G1 X83.295 Y129.835 E591.603 F1500
G1 X82 Y120 E592.02 F1500
G1 X83.295 Y110.165 E592.436 F1500
G1 X87.091 Y101 E592.853 F1500
G1 X93.13 Y93.13 E593.27 F1500
G1 X101 Y87.091 E593.686 F1500
G1 X110.165 Y83.295 E594.103 F1500
G1 X120 Y82 E594.52 F1500
G1 X129.835 Y83.295 E594.936 F1500
G1 X139 Y87.091 E595.353 F1500
G1 X146.87 Y93.13 E595.77 F1500
G1 X152.909 Y101 E596.186 F1500
G1 X156.705 Y110.165 E596.603 F1500
G1 X158 Y120 E597.02 F1500
;TYPE:WALL-INNER
G0 X154 Y120 F7200
G1 X152.841 Y128.8 E597.392 F1500
G1 X149.445 Y137 E597.765 F1500
G1 X144.042 Y144.042 E598.138 F1500
G1 X137 Y149.445 E598.511 F1500
G1 X128.8 Y152.841 E598.883 F1500
G1 X120 Y154 E599.256 F1500
G1 X111.2 Y152.841 E599.629 F1500
G1 X103 Y149.445 E600.002 F1500
G1 X95.958 Y144.042 E600.375 F1500
G1 X90.555 Y137 E600.747 F1500
G1 X87.159 Y128.8 E601.12 F1500
G1 X86 Y120 E601.493 F1500
G1 X87.159 Y111.2 E601.866 F1500
G1 X90.555 Y103 E602.238 F1500
G1 X95.958 Y95.958 E602.611 F1500
G1 X103 Y90.555 E602.984 F1500
G1 X111.2 Y87.159 E603.357 F1500
G1 X120 Y86 E603.73 F1500
G1 X128.8 Y87.159 E604.102 F1500
G1 X137 Y90.555 E604.475 F1500
G1 X144.042 Y95.958 E604.848 F1500
G1 X149.445 Y103 E605.221 F1500
G1 X152.841 Y111.2 E605.594 F1500
G1 X154 Y120 E605.966 F1500
;TYPE:SOLID-FILL
G0 X90.138 Y111.678 F7200
G1 X111.678 Y90.138 E607.246 F1350
G0 X119.169 Y89.011 F7200
G1 X89.011 Y119.169 E609.037 F1350
G0 X89.426 Y125.119 F7200
G1 X125.119 Y89.426 E611.157 F1350
G0 X130.187 Y90.721 F7200
G1 X90.721 Y130.187 E613.501 F1350
G0 X92.66 Y134.612 F7200
G1 X134.612 Y92.66 E615.993 F1350
G0 X138.506 Y95.13 F7200
G1 X95.13 Y138.506 E618.569 F1350
G0 X98.08 Y141.92 F7200
G1 X141.92 Y98.08 E621.173 F1350
G0 X144.87 Y101.494 F7200
G1 X101.494 Y144.87 E623.75 F1350
G0 X105.388 Y147.34 F7200
G1 X147.34 Y105.388 E626.242 F1350
G0 X149.279 Y109.813 F7200
G1 X109.813 Y149.279 E628.586 F1350
G0 X114.881 Y150.574 F7200
G1 X150.574 Y114.881 E630.706 F1350
G0 X150.989 Y120.831 F7200
G1 X120.831 Y150.989 E632.497 F1350
G0 X128.322 Y149.862 F7200
G1 X149.862 Y128.322 E633.777 F1350
;LAYER:17
G1 Z3.6 F900
;TYPE:WALL-OUTER
G0 X157.675 Y124.96 F7200
G1 X155.107 Y134.542 E634.193 F1500
G1 X150.147 Y143.133 E634.61 F1500
G1 X143.133 Y150.147 E635.027 F1500
G1 X134.542 Y155.107 E635.443 F1500
G1 X124.96 Y157.675 E635.86 F1500
G1 X115.04 Y157.675 E636.277 F1500
G1 X105.458 Y155.107 E636.693 F1500
G1 X96.867 Y150.147 E637.11 F1500
G1 X89.853 Y143.133 E637.526 F1500
G1 X84.893 Y134.542 E637.943 F1500
G1 X82.325 Y124.96 E638.36 F1500
G1 X82.325 Y115.04 E638.776 F1500
G1 X84.893 Y105.458 E639.193 F1500
G1 X89.853 Y96.867 E639.61 F1500
G1 X96.867 Y89.853 E640.026 F1500
G1 X105.458 Y84.893 E640.443 F1500
G1 X115.04 Y82.325 E640.86 F1500
G1 X124.96 Y82.325 E641.276 F1500
G1 X134.542 Y84.893 E641.693 F1500
G1 X143.133 Y89.853 E642.109 F1500
G1 X150.147 Y96.867 E642.526 F1500
G1 X155.107 Y105.458 E642.943 F1500
G1 X157.675 Y115.04 E643.359 F1500
G1 X157.675 Y124.96 E643.776 F1500
;TYPE:WALL-INNER
G0 X153.709 Y124.438 F7200
G1 X151.412 Y133.011 E644.149 F1500
G1 X146.974 Y140.698 E644.522 F1500
G1 X140.698 Y146.974 E644.894 F1500
G1 X133.011 Y151.412 E645.267 F1500
G1 X124.438 Y153.709 E645.64 F1500
G1 X115.562 Y153.709 E646.013 F1500
G1 X106.989 Y151.412 E646.385 F1500
G1 X99.302 Y146.974 E646.758 F1500
G1 X93.026 Y140.698 E647.131 F1500
G1 X88.588 Y133.011 E647.504 F1500
G1 X86.291 Y124.438 E647.877 F1500
G1 X86.291 Y115.562 E648.249 F1500
G1 X88.588 Y106.989 E648.622 F1500
G1 X93.026 Y99.302 E648.995 F1500
G1 X99.302 Y93.026 E649.368 F1500
G1 X106.989 Y88.588 E649.741 F1500
G1 X115.562 Y86.291 E650.113 F1500
G1 X124.438 Y86.291 E650.486 F1500
G1 X133.011 Y88.588 E650.859 F1500
G1 X140.698 Y93.026 E651.232 F1500
G1 X146.974 Y99.302 E651.604 F1500
G1 X151.412 Y106.989 E651.977 F1500
G1 X153.709 Y115.562 E652.35 F1500
G1 X153.709 Y124.438 E652.723 F1500
;TYPE:SOLID-FILL
G0 X149.862 Y111.678 F7200
G1 X128.322 Y90.138 E654.002 F1350
G0 X120.831 Y89.011 F7200
G1 X150.989 Y119.169 E655.794 F1350
G0 X150.574 Y125.119 F7200
G1 X114.881 Y89.426 E657.914 F1350
G0 X109.813 Y90.721 F7200
G1 X149.279 Y130.187 E660.258 F1350
G0 X147.34 Y134.612 F7200
G1 X105.388 Y92.66 E662.75 F1350
G0 X101.494 Y95.13 F7200
G1 X144.87 Y138.506 E665.326 F1350
G0 X141.92 Y141.92 F7200
G1 X98.08 Y98.08 E667.93 F1350
G0 X95.13 Y101.494 F7200
G1 X138.506 Y144.87 E670.506 F1350
G0 X134.612 Y147.34 F7200
G1 X92.66 Y105.388 E672.998 F1350
G0 X90.721 Y109.813 F7200
G1 X130.187 Y149.279 E675.342 F1350
G0 X125.119 Y150.574 F7200
G1 X89.426 Y114.881 E677.462 F1350
G0 X89.011 Y120.831 F7200
G1 X119.169 Y150.989 E679.254 F1350
G0 X111.678 Y149.862 F7200
G1 X90.138 Y128.322 E680.533 F1350
;END
M104 S0
M140 S0
M107
G0 X20 Y220 F7200
M84
